NORAD_CAT_ID,OBJECT_NAME,OBJECT_TYPE,EPOCH,MEAN_MOTION,ECCENTRICITY,INCLINATION,RA_OF_ASC_NODE,ARG_OF_PERICENTER,MEAN_ANOMALY,BSTAR,MEAN_MOTION_DOT,MEAN_MOTION_DDOT,TLE_LINE0,TLE_LINE1,TLE_LINE2,SEMIMAJOR_AXIS,PERIOD,APOGEE,PERIGEE,DECAYED
50808.0,STARLINK-3355,PAYLOAD,2022-01-21 14:00:01,15.77367665,0.0001548,53.2175,126.4176,38.15,252.9442,-0.0053658,-0.00821781,0.0,0 STARLINK-3355,1 50808U 22001F   22021.58334491 -.00821781  00000-0 -53658-2 0  9998,2 50808  53.2175 126.4176 0001548  38.1500 252.9442 15.77367665  2865,6716.0390000000025,91.291,338.944,336.865,0.0
50808.0,STARLINK-3355,PAYLOAD,2022-01-21 20:00:01,15.76928419,0.000119,53.2172,125.173,61.5739,209.7682,-0.0054657,-0.00820744,0.0,0 STARLINK-3355,1 50808U 22001F   22021.83334491 -.00820744  00000-0 -54657-2 0  9994,2 50808  53.2172 125.1730 0001190  61.5739 209.7682 15.76928419  3632,6717.286,91.317,339.951,338.352,0.0
50808.0,STARLINK-3355,PAYLOAD,2022-01-21 22:00:00,15.76781741,0.0001098,53.2173,124.7579,56.4357,328.2349,-0.0055025,-0.00820833,0.0,0 STARLINK-3355,1 50808U 22001F   22021.91667824 -.00820833  00000-0 -55025-2 0  9991,2 50808  53.2173 124.7579 0001098  56.4357 328.2349 15.76781741  2917,6717.703,91.325,340.305,338.83,0.0
50808.0,STARLINK-3355,PAYLOAD,2022-01-22 14:00:01,15.75608818,0.0001695,53.2175,121.4448,39.5595,170.1513,-0.0057817,-0.00819058,0.0,0 STARLINK-3355,1 50808U 22001F   22022.58334491 -.00819058  00000-0 -57817-2 0  9994,2 50808  53.2175 121.4448 0001695  39.5595 170.1513 15.75608818  3029,6721.036,91.393,344.04,341.76199999999994,0.0
50808.0,STARLINK-3355,PAYLOAD,2022-01-22 20:00:01,15.75170785,0.0001338,53.2172,120.2034,53.039,135.3356,-0.0059127,-0.00821262,0.0,0 STARLINK-3355,1 50808U 22001F   22022.83334491 -.00821262  00000-0 -59127-2 0  9998,2 50808  53.2172 120.2034 0001338  53.0390 135.3356 15.75170785  3791,6722.281999999997,91.419,345.047,343.2480000000001,0.0
50808.0,STARLINK-3355,PAYLOAD,2022-01-22 22:00:00,15.75024465,0.0001166,53.2175,119.7892,57.8255,243.3493,-0.0059515,-0.00821294,0.0,0 STARLINK-3355,1 50808U 22001F   22022.91667824 -.00821294  00000-0 -59515-2 0  9992,2 50808  53.2175 119.7892 0001166  57.8255 243.3493 15.75024465  3076,6722.699000000001,91.427,345.347,343.78,0.0
50808.0,STARLINK-3355,PAYLOAD,2022-01-23 14:00:01,15.73807885,0.0001669,53.2175,116.4852,32.9005,89.0987,-0.0054121,-0.00717269,0.0,0 STARLINK-3355,1 50808U 22001F   22023.58334491 -.00717269  00000-0 -54121-2 0  9991,2 50808  53.2175 116.4852 0001669  32.9005  89.0987 15.73807885  3189,6726.163000000001,91.498,349.15,346.905,0.0
50808.0,STARLINK-3355,PAYLOAD,2022-01-23 20:00:01,15.73258888,0.0001311,53.2171,115.2466,43.7049,55.3837,-0.00062657,-0.00087862,0.0,0 STARLINK-3355,1 50808U 22001F   22023.83334491 -.00087862  00000-0 -62657-3 0  9992,2 50808  53.2171 115.2466 0001311  43.7049  55.3837 15.73258888  3953,6727.727,91.53,350.474,348.71,0.0
50808.0,STARLINK-3355,PAYLOAD,2022-01-23 22:00:00,15.73211204,0.0001419999999999,53.2173,114.8336,49.0564,162.2899,-9.3879e-05,-0.0001378,0.0,0 STARLINK-3355,1 50808U 22001F   22023.91667824 -.00013780  00000-0 -93879-4 0  9999,2 50808  53.2173 114.8336 0001420  49.0564 162.2899 15.73211204  3247,6727.863,91.533,350.684,348.773,0.0
50808.0,STARLINK-3355,PAYLOAD,2022-01-24 06:00:02,15.73205359,0.0001573,53.2175,113.1829,41.9556,258.3928,-4.1021e-06,-1.196e-05,0.0,0 STARLINK-3355,1 50808U 22001F   22024.25002315 -.00001196  00000-0 -41021-5 0  9996,2 50808  53.2175 113.1829 0001573  41.9556 258.3928 15.73205359  4019,6727.88,91.533,350.80300000000005,348.68699999999984,0.0
50808.0,STARLINK-3355,PAYLOAD,2022-01-24 12:00:00,15.73223691,0.0001794,53.2154,111.9468,39.7201,237.4326,-0.00025507,-0.00036302,0.0,0 STARLINK-3355,1 50808U 22001F   22024.50001157 -.00036302  00000-0 -25507-3 0  9993,2 50808  53.2154 111.9468 0001794  39.7201 237.4326 15.73223691  4051,6727.828,91.532,350.9,348.486,0.0
50808.0,STARLINK-3355,PAYLOAD,2022-01-24 14:00:01,15.73191331,0.000183,53.2157,111.5348,39.1938,350.2045,0.00019497,0.0002682,0.0,0 STARLINK-3355,1 50808U 22001F   22024.58334491  .00026820  00000-0  19497-3 0  9994,2 50808  53.2157 111.5348 0001830  39.1938 350.2045 15.73191331  3358,6727.92,91.534,351.016,348.55400000000014,0.0
50808.0,STARLINK-3355,PAYLOAD,2022-01-24 22:00:00,15.73228627,0.0001693,53.2155,109.8839,35.5454,82.7888,-0.00057797,-0.0008106,0.0,0 STARLINK-3355,1 50808U 22001F   22024.91667824 -.00081060  00000-0 -57797-3 0  9994,2 50808  53.2155 109.8839 0001693  35.5454  82.7888 15.73228627  3408,6727.814,91.532,350.8180000000001,348.54,0.0
50808.0,STARLINK-3355,PAYLOAD,2022-01-25 04:00:00,15.73162861,0.0001584,53.2154,108.6458,38.6565,56.3826,0.00045947,0.00064256,0.0,0 STARLINK-3355,1 50808U 22001F   22025.16667824  .00064256  00000-0  45947-3 0  9992,2 50808  53.2154 108.6458 0001584  38.6565  56.3826 15.73162861  4167,6728.001,91.535,350.932,348.8,0.0
50808.0,STARLINK-3355,PAYLOAD,2022-01-27 14:00:01,15.7318915,0.0002101,53.2156,96.6891,33.5861,76.2151,0.00041655,0.00058221,0.0,0 STARLINK-3355,1 50808U 22001F   22027.58334491  .00058221  00000-0  41655-3 0  9998,2 50808  53.2156  96.6891 0002101  33.5861  76.2151 15.73189150  3740,6727.926,91.534,351.205,348.37800000000016,0.0
50808.0,STARLINK-3355,PAYLOAD,2022-01-27 15:03:52,15.72806017,0.000233,53.2163,96.4678,82.1219,278.0066,-0.00069527,-0.00095496,0.0,0 STARLINK-3355,1 50808U 22001F   22027.62768629 -.00095496  00000-0 -69527-3 0  9992,2 50808  53.2163  96.4678 0002330  82.1219 278.0066 15.72806017  4543,6729.019,91.556,352.452,349.316,0.0
50808.0,STARLINK-3355,PAYLOAD,2022-01-28 06:00:02,15.73205162,0.0001817,53.2156,93.3882,33.8725,253.8593,0.00015874,0.00021721,0.0,0 STARLINK-3355,1 50808U 22001F   22028.25002315  .00021721  00000-0  15874-3 0  9999,2 50808  53.2156  93.3882 0001817  33.8725 253.8593 15.73205162  4644,6727.88,91.533,350.968,348.523,0.0
50808.0,STARLINK-3355,PAYLOAD,2022-01-28 14:00:01,15.73216167,0.0002064,53.2159,91.7408,27.8155,348.7897,5.1442e-05,6.609e-05,0.0,0 STARLINK-3355,1 50808U 22001F   22028.58334491  .00006609  00000-0  51442-4 0  9998,2 50808  53.2159  91.7408 0002064  27.8155 348.7897 15.73216167  3735,6727.849,91.532,351.103,348.325,0.0
50808.0,STARLINK-3355,PAYLOAD,2022-01-28 20:00:01,15.73226638,0.0001926,53.2158,90.5024,26.4324,326.8835,-0.00040355,-0.00056943,0.0,0 STARLINK-3355,1 50808U 22001F   22028.83334491 -.00056943  00000-0 -40355-3 0  9994,2 50808  53.2158  90.5024 0001926  26.4324 326.8835 15.73226638  4738,6727.819,91.532,350.98,348.38800000000015,0.0
50808.0,STARLINK-3355,PAYLOAD,2022-01-28 22:00:00,15.73182098,0.0001839,53.216,90.0895,25.7121,79.8534,0.00018446,0.00025326,0.0,0 STARLINK-3355,1 50808U 22001F   22028.91667824  .00025326  00000-0  18446-3 0  9997,2 50808  53.2160  90.0895 0001839  25.7121  79.8534 15.73182098  3722,6727.946,91.534,351.048,348.574,0.0
50808.0,STARLINK-3355,PAYLOAD,2022-01-29 06:00:00,15.73236889,0.0001846,53.2159,88.4402,27.381,167.0898,-0.00024072,-0.00034322,0.0,0 STARLINK-3355,1 50808U 22001F   22029.25001157 -.00034322  00000-0 -24072-3 0  9996,2 50808  53.2159  88.4402 0001846  27.3810 167.0898 15.73236889  4807,6727.79,91.531,350.897,348.413,0.0
50808.0,STARLINK-3355,PAYLOAD,2022-01-29 14:00:01,15.73166904,0.0002114,53.2155,86.7925,21.7123,261.728,0.0003762,0.00052435,0.0,0 STARLINK-3355,1 50808U 22001F   22029.58334491  .00052435  00000-0  37620-3 0  9998,2 50808  53.2155  86.7925 0002114  21.7123 261.7280 15.73166904  3736,6727.99,91.535,351.277,348.432,0.0
50808.0,STARLINK-3355,PAYLOAD,2022-01-29 22:00:00,15.73195853,0.0001825,53.2153,85.1411,22.2707,350.0905,0.00037954,0.00052974,0.0,0 STARLINK-3355,1 50808U 22001F   22029.91667824  .00052974  00000-0  37954-3 0  9992,2 50808  53.2153  85.1411 0001825  22.2707 350.0905 15.73195853  3729,6727.906999999997,91.533,351.0,348.5440000000001,0.0
50808.0,STARLINK-3355,PAYLOAD,2022-01-30 06:00:00,15.73285894,0.0001848,53.2154,83.4918,21.6757,79.6197,-0.00065479,-0.00091862,0.0,0 STARLINK-3355,1 50808U 22001F   22030.25001157 -.00091862  00000-0 -65479-3 0  9996,2 50808  53.2154  83.4918 0001848  21.6757  79.6197 15.73285894  4965,6727.65,91.528,350.759,348.272,0.0
50808.0,STARLINK-3355,PAYLOAD,2022-01-30 14:00:01,15.73177145,0.000208,53.2156,81.8439,16.7949,173.4787,0.00043698,0.00061097,0.0,0 STARLINK-3355,1 50808U 22001F   22030.58334491  .00061097  00000-0  43698-3 0  9996,2 50808  53.2156  81.8439 0002080  16.7949 173.4787 15.73177145  3735,6727.96,91.535,351.225,348.426,0.0
50808.0,STARLINK-3355,PAYLOAD,2022-01-30 22:00:00,15.73176566,0.0001998,53.2156,80.1924,22.531,256.6884,7.6432e-05,0.00010109,0.0,0 STARLINK-3355,1 50808U 22001F   22030.91667824  .00010109  00000-0  76432-4 0  9993,2 50808  53.2156  80.1924 0001998  22.5310 256.6884 15.73176566  5066,6727.962,91.535,351.171,348.483,0.0
50808.0,STARLINK-3355,PAYLOAD,2022-01-31 06:00:00,15.73108128,0.0001919,53.2174,78.5428,19.1402,348.8071,0.0011308,0.00160518,0.0,0 STARLINK-3355,1 50808U 22001F   22031.25001157  .00160518  00000-0  11308-2 0  9991,2 50808  53.2174  78.5428 0001919  19.1402 348.8071 15.73108128  5121,6728.156999999997,91.539,351.31300000000016,348.731,0.0
50808.0,STARLINK-3355,PAYLOAD,2022-01-31 12:00:00,15.73186472,0.0002236,53.2152,77.3075,24.1274,320.6991,0.00036071,0.0005028,0.0,0 STARLINK-3355,1 50808U 22001F   22031.50001157  .00050280  00000-0  36071-3 0  9998,2 50808  53.2152  77.3075 0002236  24.1274 320.6991 15.73186472  5158,6727.934,91.534,351.30300000000005,348.2940000000001,0.0
50808.0,STARLINK-3355,PAYLOAD,2022-01-31 14:00:01,15.73193898,0.000224,53.2149,76.8952,22.5879,74.5356,0.00032507,0.00045238,0.0,0 STARLINK-3355,1 50808U 22001F   22031.58335648  .00045238  00000-0  32507-3 0  9998,2 50808  53.2149  76.8952 0002240  22.5879  74.5356 15.73193898  3721,6727.913000000001,91.534,351.285,348.271,0.0
